[{"OBJECT_NAME":"FLOCK 4G-13","OBJECT_ID":"2025-009N","EPOCH":"2026-03-09T16:57:12.071808","MEAN_MOTION":15.32770015,"ECCENTRICITY":0.0003801,"INCLINATION":97.4019,"RA_OF_ASC_NODE":151.0918,"ARG_OF_PERICENTER":292.7207,"MEAN_ANOMALY":67.3633,"EPHEMERIS_TYPE":0,"CLASSIFICATION_TYPE":"U","NORAD_CAT_ID":62621,"ELEMENT_SET_NO":999,"REV_AT_EPOCH":6370,"BSTAR":0.0016695386,"MEAN_MOTION_DOT":0.00053076,"MEAN_MOTION_DDOT":0},{"OBJECT_NAME":"STARLINK-35475","OBJECT_ID":"2025-223M","EPOCH":"2026-03-08T22:17:55.987008","MEAN_MOTION":15.302029,"ECCENTRICITY":0.0001193,"INCLINATION":53.1572,"RA_OF_ASC_NODE":297.3932,"ARG_OF_PERICENTER":75.081,"MEAN_ANOMALY":285.0323,"EPHEMERIS_TYPE":0,"CLASSIFICATION_TYPE":"U","NORAD_CAT_ID":65865,"ELEMENT_SET_NO":999,"REV_AT_EPOCH":2409,"BSTAR":0.00050900752,"MEAN_MOTION_DOT":0.00014747,"MEAN_MOTION_DDOT":0}]
